{"type": "FeatureCollection", "features": [ {"type": "Feature", "properties": {"norad_id": 66909, "name": "SILVERSAT", "group": "last-30-days", "lat": 24.86532711392093, "lon": 110.49971380884054, "alt_km": 405.3760861052251, "timestamp": "2025-12-23T11:34:46.947903+00:00", "meta": {"OBJECT_NAME": "SILVERSAT", "OBJECT_ID": "1998-067XV", "EPOCH": "2025-12-22T12:16:28.422912", "MEAN_MOTION": 15.52898333, "ECCENTRICITY": 0.0003866, "INCLINATION": 51.6306, "RA_OF_ASC_NODE": 93.7929, "ARG_OF_PERICENTER": 288.2093, "MEAN_ANOMALY": 71.8476, "EPHEMERIS_TYPE": 0, "CLASSIFICATION_TYPE": "U", "NORAD_CAT_ID": 66909, "ELEMENT_SET_NO": 999, "REV_AT_EPOCH": 313, "BSTAR": 0.0011325313, "MEAN_MOTION_DOT": 0.00071888, "MEAN_MOTION_DDOT": 0}, "tle": {"line1": "1 66909U 98067XV  25356.51144008  .00071888  00000+0  11325-2 0  9999", "line2": "2 66909  51.6306  93.7929 0003866 288.2093  71.8476 15.52898333  3134"}}, "geometry": {"type": "Point", "coordinates": [110.49971380884054, 24.86532711392093]}}, {"type": "Feature", "properties": {"norad_id": 66910, "name": "1998-067XW", "group": "last-30-days", "lat": 31.709565514416614, "lon": 118.24566465277593, "alt_km": 405.94014859319304, "timestamp": "2025-12-23T11:34:46.947913+00:00", "meta": {"OBJECT_NAME": "1998-067XW", "OBJECT_ID": "1998-067XW", "EPOCH": "2025-12-22T12:13:56.337312", "MEAN_MOTION": 15.52855241, "ECCENTRICITY": 0.00039884, "INCLINATION": 51.6304, "RA_OF_ASC_NODE": 93.7808, "ARG_OF_PERICENTER": 260.6768, "MEAN_ANOMALY": 99.3771, "EPHEMERIS_TYPE": 0, "CLASSIFICATION_TYPE": "U", "NORAD_CAT_ID": 66910, "ELEMENT_SET_NO": 999, "REV_AT_EPOCH": 313, "BSTAR": 0.0010313397, "MEAN_MOTION_DOT": 0.00065266, "MEAN_MOTION_DDOT": 0}, "tle": {"line1": "1 66910U 98067XW  25356.50967983  .00065266  00000+0  10313-2 0  9994", "line2": "2 66910  51.6304  93.7808 0003988 260.6768  99.3771 15.52855241  3132"}}, "geometry": {"type": "Point", "coordinates": [118.24566465277593, 31.709565514416614]}}, {"type": "Feature", "properties": {"norad_id": 66911, "name": "1998-067XX", "group": "last-30-days", "lat": 43.08075126073273, "lon": 136.70807572468485, "alt_km": 402.9572783758076, "timestamp": "2025-12-23T11:34:46.947922+00:00", "meta": {"OBJECT_NAME": "1998-067XX", "OBJECT_ID": "1998-067XX", "EPOCH": "2025-12-22T19:52:48.657216", "MEAN_MOTION": 15.5335973, "ECCENTRICITY": 0.0003678, "INCLINATION": 51.6306, "RA_OF_ASC_NODE": 92.1584, "ARG_OF_PERICENTER": 266.6308, "MEAN_ANOMALY": 93.4262, "EPHEMERIS_TYPE": 0, "CLASSIFICATION_TYPE": "U", "NORAD_CAT_ID": 66911, "ELEMENT_SET_NO": 999, "REV_AT_EPOCH": 317, "BSTAR": 0.0011443, "MEAN_MOTION_DOT": 0.00073883, "MEAN_MOTION_DDOT": 0}, "tle": {"line1": "1 66911U 98067XX  25356.82834094  .00073883  00000+0  11443-2 0  9995", "line2": "2 66911  51.6306  92.1584 0003678 266.6308  93.4262 15.53359730  3178"}}, "geometry": {"type": "Point", "coordinates": [136.70807572468485, 43.08075126073273]}}, {"type": "Feature", "properties": {"norad_id": 66912, "name": "1998-067XY", "group": "last-30-days", "lat": -2.860778333021202, "lon": 86.76470032374745, "alt_km": 410.8635778057733, "timestamp": "2025-12-23T11:34:46.947933+00:00", "meta": {"OBJECT_NAME": "1998-067XY", "OBJECT_ID": "1998-067XY", "EPOCH": "2025-12-22T13:57:42.061248", "MEAN_MOTION": 15.52056622, "ECCENTRICITY": 0.00039127, "INCLINATION": 51.6324, "RA_OF_ASC_NODE": 93.5129, "ARG_OF_PERICENTER": 278.0711, "MEAN_ANOMALY": 81.9835, "EPHEMERIS_TYPE": 0, "CLASSIFICATION_TYPE": "U", "NORAD_CAT_ID": 66912, "ELEMENT_SET_NO": 999, "REV_AT_EPOCH": 313, "BSTAR": 0.00086867978, "MEAN_MOTION_DOT": 0.0005325, "MEAN_MOTION_DDOT": 0}, "tle": {"line1": "1 66912U 98067XY  25356.58173682  .00053250  00000+0  86868-3 0  9998", "line2": "2 66912  51.6324  93.5129 0003912 278.0711  81.9835 15.52056622  3132"}}, "geometry": {"type": "Point", "coordinates": [86.76470032374745, -2.860778333021202]}}, {"type": "Feature", "properties": {"norad_id": 66913, "name": "2025-284A", "group": "last-30-days", "lat": -54.6529213109395, "lon": -49.933966887164296, "alt_km": 537.9503542136044, "timestamp": "2025-12-23T11:34:46.947943+00:00", "meta": {"OBJECT_NAME": "2025-284A", "OBJECT_ID": "2025-284A", "EPOCH": "2025-12-23T02:34:46.437888", "MEAN_MOTION": 15.08893564, "ECCENTRICITY": 0.0013475, "INCLINATION": 80.4035, "RA_OF_ASC_NODE": 116.7336, "ARG_OF_PERICENTER": 259.6514, "MEAN_ANOMALY": 100.3189, "EPHEMERIS_TYPE": 0, "CLASSIFICATION_TYPE": "U", "NORAD_CAT_ID": 66913, "ELEMENT_SET_NO": 999, "REV_AT_EPOCH": 269, "BSTAR": 0.00055264, "MEAN_MOTION_DOT": 8.748e-05, "MEAN_MOTION_DDOT": 0}, "tle": {"line1": "1 66913U 25284A   25357.10748192  .00008748  00000+0  55264-3 0  9991", "line2": "2 66913  80.4035 116.7336 0013475 259.6514 100.3189 15.08893564  2694"}}, "geometry": {"type": "Point", "coordinates": [-49.933966887164296, -54.6529213109395]}}, {"type": "Feature", "properties": {"norad_id": 66914, "name": "2025-284B", "group": "last-30-days", "lat": 79.867011558992, "lon": -135.03987194063106, "alt_km": 503.774375445455, "timestamp": "2025-12-23T11:34:46.947952+00:00", "meta": {"OBJECT_NAME": "2025-284B", "OBJECT_ID": "2025-284B", "EPOCH": "2025-12-16T06:51:11.417184", "MEAN_MOTION": 15.18985981, "ECCENTRICITY": 0.00081793, "INCLINATION": 80.4045, "RA_OF_ASC_NODE": 125.2713, "ARG_OF_PERICENTER": 234.9626, "MEAN_ANOMALY": 125.0834, "EPHEMERIS_TYPE": 0, "CLASSIFICATION_TYPE": "U", "NORAD_CAT_ID": 66914, "ELEMENT_SET_NO": 999, "REV_AT_EPOCH": 166, "BSTAR": 0.00038444995, "MEAN_MOTION_DOT": 8.068e-05, "MEAN_MOTION_DDOT": 0}, "tle": {"line1": "1 66914U 25284B   25350.28554881  .00008068  00000+0  38445-3 0  9991", "line2": "2 66914  80.4045 125.2713 0008179 234.9626 125.0834 15.18985981  1668"}}, "geometry": {"type": "Point", "coordinates": [-135.03987194063106, 79.867011558992]}}, {"type": "Feature", "properties": {"norad_id": 66915, "name": "HULIANWANG DIGUI-105", "group": "last-30-days", "lat": 21.75986386067427, "lon": -126.05063865340918, "alt_km": 884.011195393723, "timestamp": "2025-12-23T11:34:46.947961+00:00", "meta": {"OBJECT_NAME": "HULIANWANG DIGUI-105", "OBJECT_ID": "2025-285A", "EPOCH": "2025-12-23T05:44:14.597376", "MEAN_MOTION": 14.03719113, "ECCENTRICITY": 0.0008082, "INCLINATION": 50.0052, "RA_OF_ASC_NODE": 74.5185, "ARG_OF_PERICENTER": 317.7791, "MEAN_ANOMALY": 42.2491, "EPHEMERIS_TYPE": 0, "CLASSIFICATION_TYPE": "U", "NORAD_CAT_ID": 66915, "ELEMENT_SET_NO": 999, "REV_AT_EPOCH": 238, "BSTAR": 0.00012409, "MEAN_MOTION_DOT": 4.5e-07, "MEAN_MOTION_DDOT": 0}, "tle": {"line1": "1 66915U 25285A   25357.23905784  .00000045  00000+0  12409-3 0  9996", "line2": "2 66915  50.0052  74.5185 0008082 317.7791  42.2491 14.03719113  2389"}}, "geometry": {"type": "Point", "coordinates": [-126.05063865340918, 21.75986386067427]}}, {"type": "Feature", "properties": {"norad_id": 66916, "name": "HULIANWANG DIGUI-106", "group": "last-30-days", "lat": 11.016755677815722, "lon": -115.90369091735161, "alt_km": 884.1364633142884, "timestamp": "2025-12-23T11:34:46.947971+00:00", "meta": {"OBJECT_NAME": "HULIANWANG DIGUI-106", "OBJECT_ID": "2025-285B", "EPOCH": "2025-12-23T05:40:06.417696", "MEAN_MOTION": 14.03703936, "ECCENTRICITY": 0.0006867, "INCLINATION": 50.0063, "RA_OF_ASC_NODE": 74.5053, "ARG_OF_PERICENTER": 311.1039, "MEAN_ANOMALY": 48.9272, "EPHEMERIS_TYPE": 0, "CLASSIFICATION_TYPE": "U", "NORAD_CAT_ID": 66916, "ELEMENT_SET_NO": 999, "REV_AT_EPOCH": 238, "BSTAR": 0.00011453, "MEAN_MOTION_DOT": 3e-07, "MEAN_MOTION_DDOT": 0}, "tle": {"line1": "1 66916U 25285B   25357.23618539  .00000030  00000+0  11453-3 0  9998", "line2": "2 66916  50.0063  74.5053 0006867 311.1039  48.9272 14.03703936  2384"}}, "geometry": {"type": "Point", "coordinates": [-115.90369091735161, 11.016755677815722]}}, {"type": "Feature", "properties": {"norad_id": 66917, "name": "HULIANWANG DIGUI-107", "group": "last-30-days", "lat": 4.209504472447554, "lon": -110.06476299004697, "alt_km": 885.6613961144603, "timestamp": "2025-12-23T11:34:46.947980+00:00", "meta": {"OBJECT_NAME": "HULIANWANG DIGUI-107", "OBJECT_ID": "2025-285C", "EPOCH": "2025-12-23T05:37:32.998944", "MEAN_MOTION": 14.03664009, "ECCENTRICITY": 0.000751, "INCLINATION": 50.0028, "RA_OF_ASC_NODE": 74.4884, "ARG_OF_PERICENTER": 320.5082, "MEAN_ANOMALY": 39.5274, "EPHEMERIS_TYPE": 0, "CLASSIFICATION_TYPE": "U", "NORAD_CAT_ID": 66917, "ELEMENT_SET_NO": 999, "REV_AT_EPOCH": 238, "BSTAR": 0.00012649, "MEAN_MOTION_DOT": 4.9e-07, "MEAN_MOTION_DDOT": 0}, "tle": {"line1": "1 66917U 25285C   25357.23440971  .00000049  00000+0  12649-3 0  9990", "line2": "2 66917  50.0028  74.4884 0007510 320.5082  39.5274 14.03664009  2380"}}, "geometry": {"type": "Point", "coordinates": [-110.06476299004697, 4.209504472447554]}}, {"type": "Feature", "properties": {"norad_id": 66918, "name": "HULIANWANG DIGUI-108", "group": "last-30-days", "lat": 1.6590336278468587, "lon": -107.91692726287981, "alt_km": 885.2548594662703, "timestamp": "2025-12-23T11:34:46.947989+00:00", "meta": {"OBJECT_NAME": "HULIANWANG DIGUI-108", "OBJECT_ID": "2025-285D", "EPOCH": "2025-12-23T05:36:35.063424", "MEAN_MOTION": 14.03603029, "ECCENTRICITY": 0.0006661, "INCLINATION": 50.0061, "RA_OF_ASC_NODE": 74.4893, "ARG_OF_PERICENTER": 315.1194, "MEAN_ANOMALY": 44.9171, "EPHEMERIS_TYPE": 0, "CLASSIFICATION_TYPE": "U", "NORAD_CAT_ID": 66918, "ELEMENT_SET_NO": 999, "REV_AT_EPOCH": 238, "BSTAR": 0.00011815, "MEAN_MOTION_DOT": 3.5e-07, "MEAN_MOTION_DDOT": 0}, "tle": {"line1": "1 66918U 25285D   25357.23373916  .00000035  00000+0  11815-3 0  9994", "line2": "2 66918  50.0061  74.4893 0006661 315.1194  44.9171 14.03603029  2389"}}, "geometry": {"type": "Point", "coordinates": [-107.91692726287981, 1.6590336278468587]}}]}